STARLINK-31979          
1 59964U 24107V   26061.49247763 -.00000620  00000+0 -88269-5 0  9991
2 59964  53.1611  99.0208 0001293  81.3842 278.7305 15.30181318 98641
STARLINK-31978          
1 60016U 24111A   26061.40501268 -.00000256  00000+0  34973-5 0  9997
2 60016  53.1602 109.7878 0001260  84.7353 275.3792 15.30185804 97816
STARLINK-31987          
1 60017U 24111B   26061.39867715 -.00000277  00000+0  27678-5 0  9995
2 60017  53.1599 109.7460 0001342  91.9917 268.1237 15.30190453 97872
STARLINK-31984          
1 60018U 24111C   26061.39128307  .00002491  00000+0  96199-4 0  9995
2 60018  53.1602 109.6979 0001248  90.6860 269.4284 15.30205430 97766
STARLINK-31986          
1 60019U 24111D   26061.51242193 -.00006905  00000+0 -22115-3 0  9992
2 60019  53.1589 109.0313 0001275 108.6093 251.5046 15.30210036 97941
STARLINK-31883          
1 60020U 24111E   26061.40184523  .00002625  00000+0  10079-3 0  9993
2 60020  53.1605 109.7673 0001376  82.3777 277.7380 15.30171691 97862
STARLINK-31967          
1 60021U 24111F   26061.54502653 -.00001663  00000+0 -44073-4 0  9992
2 60021  53.1594 108.5223 0000964  92.5184 267.5927 15.30180789 97957
STARLINK-31982          
1 60022U 24111G   26061.40806689 -.00000104  00000+0  86152-5 0  9997
2 60022  53.1597 109.0958 0001174  70.6826 289.4302 15.30188527 97932
STARLINK-31992          
1 60023U 24111H   26061.44183989 -.00001418  00000+0 -35767-4 0  9998
2 60023  53.1594 109.3072 0001336  77.3373 282.7777 15.30184497 97935
STARLINK-31990          
1 60024U 24111J   26061.56821016  .00000139  00000+0  16815-4 0  9992
2 60024  53.1588 108.6701 0001157 103.5317 256.5812 15.30227201 97942
STARLINK-31939          
1 60026U 24111L   26061.42389529 -.00001393  00000+0 -34942-4 0  9993
2 60026  53.1584 109.1885 0001094  62.0155 298.0957 15.30190201 97926
STARLINK-32012          
1 60027U 24111M   26061.42706031 -.00000442  00000+0 -27883-5 0  9996
2 60027  53.1598 109.2053 0001134  86.2334 273.8797 15.30191790 97929
STARLINK-32008          
1 60028U 24111N   26061.49659558 -.00001351  00000+0 -33502-4 0  9999
2 60028  53.1601 108.9279 0001273  93.5821 266.5326 15.30191752 97933
STARLINK-32006          
1 60029U 24111P   26061.44078415 -.00001880  00000+0 -51408-4 0  9994
2 60029  53.1595 109.2977 0001170  86.7324 273.3811 15.30182669 97924
STARLINK-32011          
1 60030U 24111Q   26061.41017185 -.00000810  00000+0 -15229-4 0  9993
2 60030  53.1579 109.1087 0001331  83.4524 276.6628 15.30199163 97923
STARLINK-31878          
1 60031U 24111R   26061.97993944  .00000417  00000+0  26205-4 0  9998
2 60031  53.1617  55.0182 0001217  94.6640 265.4500 15.30193502 98486
