[{"OBJECT_NAME":"STARLINK-31979","OBJECT_ID":"2024-107V","EPOCH":"2026-03-02T11:49:10.067232","MEAN_MOTION":15.30181318,"ECCENTRICITY":0.0001293,"INCLINATION":53.1611,"RA_OF_ASC_NODE":99.0208,"ARG_OF_PERICENTER":81.3842,"MEAN_ANOMALY":278.7305,"EPHEMERIS_TYPE":0,"CLASSIFICATION_TYPE":"U","NORAD_CAT_ID":59964,"ELEMENT_SET_NO":999,"REV_AT_EPOCH":9864,"BSTAR":-8.826933e-6,"MEAN_MOTION_DOT":-6.2e-6,"MEAN_MOTION_DDOT":0},{"OBJECT_NAME":"STARLINK-31978","OBJECT_ID":"2024-111A","EPOCH":"2026-03-02T09:43:13.095552","MEAN_MOTION":15.30185804,"ECCENTRICITY":0.00012607,"INCLINATION":53.1602,"RA_OF_ASC_NODE":109.7878,"ARG_OF_PERICENTER":84.7353,"MEAN_ANOMALY":275.3792,"EPHEMERIS_TYPE":0,"CLASSIFICATION_TYPE":"U","NORAD_CAT_ID":60016,"ELEMENT_SET_NO":999,"REV_AT_EPOCH":9781,"BSTAR":3.497259e-6,"MEAN_MOTION_DOT":-2.56e-6,"MEAN_MOTION_DDOT":0},{"OBJECT_NAME":"STARLINK-31987","OBJECT_ID":"2024-111B","EPOCH":"2026-03-02T09:34:05.705760","MEAN_MOTION":15.30190453,"ECCENTRICITY":0.0001342,"INCLINATION":53.1599,"RA_OF_ASC_NODE":109.746,"ARG_OF_PERICENTER":91.9917,"MEAN_ANOMALY":268.1237,"EPHEMERIS_TYPE":0,"CLASSIFICATION_TYPE":"U","NORAD_CAT_ID":60017,"ELEMENT_SET_NO":999,"REV_AT_EPOCH":9787,"BSTAR":2.767797e-6,"MEAN_MOTION_DOT":-2.77e-6,"MEAN_MOTION_DDOT":0},{"OBJECT_NAME":"STARLINK-31984","OBJECT_ID":"2024-111C","EPOCH":"2026-03-02T09:23:26.857248","MEAN_MOTION":15.3020543,"ECCENTRICITY":0.00012482,"INCLINATION":53.1602,"RA_OF_ASC_NODE":109.6979,"ARG_OF_PERICENTER":90.686,"MEAN_ANOMALY":269.4284,"EPHEMERIS_TYPE":0,"CLASSIFICATION_TYPE":"U","NORAD_CAT_ID":60018,"ELEMENT_SET_NO":999,"REV_AT_EPOCH":9776,"BSTAR":9.6199306e-5,"MEAN_MOTION_DOT":2.491e-5,"MEAN_MOTION_DDOT":0},{"OBJECT_NAME":"STARLINK-31986","OBJECT_ID":"2024-111D","EPOCH":"2026-03-02T12:17:53.254752","MEAN_MOTION":15.30210036,"ECCENTRICITY":0.00012757,"INCLINATION":53.1589,"RA_OF_ASC_NODE":109.0313,"ARG_OF_PERICENTER":108.6093,"MEAN_ANOMALY":251.5046,"EPHEMERIS_TYPE":0,"CLASSIFICATION_TYPE":"U","NORAD_CAT_ID":60019,"ELEMENT_SET_NO":999,"REV_AT_EPOCH":9794,"BSTAR":-0.00022115248,"MEAN_MOTION_DOT":-6.905e-5,"MEAN_MOTION_DDOT":0},{"OBJECT_NAME":"STARLINK-31883","OBJECT_ID":"2024-111E","EPOCH":"2026-03-02T09:38:39.427872","MEAN_MOTION":15.30171691,"ECCENTRICITY":0.00013761,"INCLINATION":53.1605,"RA_OF_ASC_NODE":109.7673,"ARG_OF_PERICENTER":82.3777,"MEAN_ANOMALY":277.738,"EPHEMERIS_TYPE":0,"CLASSIFICATION_TYPE":"U","NORAD_CAT_ID":60020,"ELEMENT_SET_NO":999,"REV_AT_EPOCH":9786,"BSTAR":0.00010079451,"MEAN_MOTION_DOT":2.625e-5,"MEAN_MOTION_DDOT":0},{"OBJECT_NAME":"STARLINK-31967","OBJECT_ID":"2024-111F","EPOCH":"2026-03-02T13:04:50.292192","MEAN_MOTION":15.30180789,"ECCENTRICITY":9.64e-5,"INCLINATION":53.1594,"RA_OF_ASC_NODE":108.5223,"ARG_OF_PERICENTER":92.5184,"MEAN_ANOMALY":267.5927,"EPHEMERIS_TYPE":0,"CLASSIFICATION_TYPE":"U","NORAD_CAT_ID":60021,"ELEMENT_SET_NO":999,"REV_AT_EPOCH":9795,"BSTAR":-4.4073e-5,"MEAN_MOTION_DOT":-1.663e-5,"MEAN_MOTION_DDOT":0},{"OBJECT_NAME":"STARLINK-31982","OBJECT_ID":"2024-111G","EPOCH":"2026-03-02T09:47:36.979296","MEAN_MOTION":15.30188527,"ECCENTRICITY":0.00011743,"INCLINATION":53.1597,"RA_OF_ASC_NODE":109.0958,"ARG_OF_PERICENTER":70.6826,"MEAN_ANOMALY":289.4302,"EPHEMERIS_TYPE":0,"CLASSIFICATION_TYPE":"U","NORAD_CAT_ID":60022,"ELEMENT_SET_NO":999,"REV_AT_EPOCH":9793,"BSTAR":8.615159e-6,"MEAN_MOTION_DOT":-1.04e-6,"MEAN_MOTION_DDOT":0},{"OBJECT_NAME":"STARLINK-31992","OBJECT_ID":"2024-111H","EPOCH":"2026-03-02T10:36:14.966496","MEAN_MOTION":15.30184497,"ECCENTRICITY":0.0001336,"INCLINATION":53.1594,"RA_OF_ASC_NODE":109.3072,"ARG_OF_PERICENTER":77.3373,"MEAN_ANOMALY":282.7777,"EPHEMERIS_TYPE":0,"CLASSIFICATION_TYPE":"U","NORAD_CAT_ID":60023,"ELEMENT_SET_NO":999,"REV_AT_EPOCH":9793,"BSTAR":-3.5766665e-5,"MEAN_MOTION_DOT":-1.418e-5,"MEAN_MOTION_DDOT":0},{"OBJECT_NAME":"STARLINK-31990","OBJECT_ID":"2024-111J","EPOCH":"2026-03-02T13:38:13.357824","MEAN_MOTION":15.30227201,"ECCENTRICITY":0.0001157,"INCLINATION":53.1588,"RA_OF_ASC_NODE":108.6701,"ARG_OF_PERICENTER":103.5317,"MEAN_ANOMALY":256.5812,"EPHEMERIS_TYPE":0,"CLASSIFICATION_TYPE":"U","NORAD_CAT_ID":60024,"ELEMENT_SET_NO":999,"REV_AT_EPOCH":9794,"BSTAR":1.6815e-5,"MEAN_MOTION_DOT":1.39e-6,"MEAN_MOTION_DDOT":0},{"OBJECT_NAME":"STARLINK-31939","OBJECT_ID":"2024-111L","EPOCH":"2026-03-02T10:10:24.553056","MEAN_MOTION":15.30190201,"ECCENTRICITY":0.00010945,"INCLINATION":53.1584,"RA_OF_ASC_NODE":109.1885,"ARG_OF_PERICENTER":62.0155,"MEAN_ANOMALY":298.0957,"EPHEMERIS_TYPE":0,"CLASSIFICATION_TYPE":"U","NORAD_CAT_ID":60026,"ELEMENT_SET_NO":999,"REV_AT_EPOCH":9792,"BSTAR":-3.4942036e-5,"MEAN_MOTION_DOT":-1.393e-5,"MEAN_MOTION_DDOT":0},{"OBJECT_NAME":"STARLINK-32012","OBJECT_ID":"2024-111M","EPOCH":"2026-03-02T10:14:58.010784","MEAN_MOTION":15.3019179,"ECCENTRICITY":0.00011347,"INCLINATION":53.1598,"RA_OF_ASC_NODE":109.2053,"ARG_OF_PERICENTER":86.2334,"MEAN_ANOMALY":273.8797,"EPHEMERIS_TYPE":0,"CLASSIFICATION_TYPE":"U","NORAD_CAT_ID":60027,"ELEMENT_SET_NO":999,"REV_AT_EPOCH":9792,"BSTAR":-2.788314e-6,"MEAN_MOTION_DOT":-4.42e-6,"MEAN_MOTION_DDOT":0},{"OBJECT_NAME":"STARLINK-32008","OBJECT_ID":"2024-111N","EPOCH":"2026-03-02T11:55:05.858112","MEAN_MOTION":15.30191752,"ECCENTRICITY":0.00012738,"INCLINATION":53.1601,"RA_OF_ASC_NODE":108.9279,"ARG_OF_PERICENTER":93.5821,"MEAN_ANOMALY":266.5326,"EPHEMERIS_TYPE":0,"CLASSIFICATION_TYPE":"U","NORAD_CAT_ID":60028,"ELEMENT_SET_NO":999,"REV_AT_EPOCH":9793,"BSTAR":-3.3502437e-5,"MEAN_MOTION_DOT":-1.351e-5,"MEAN_MOTION_DDOT":0},{"OBJECT_NAME":"STARLINK-32006","OBJECT_ID":"2024-111P","EPOCH":"2026-03-02T10:34:43.750560","MEAN_MOTION":15.30182669,"ECCENTRICITY":0.00011707,"INCLINATION":53.1595,"RA_OF_ASC_NODE":109.2977,"ARG_OF_PERICENTER":86.7324,"MEAN_ANOMALY":273.3811,"EPHEMERIS_TYPE":0,"CLASSIFICATION_TYPE":"U","NORAD_CAT_ID":60029,"ELEMENT_SET_NO":999,"REV_AT_EPOCH":9792,"BSTAR":-5.1407717e-5,"MEAN_MOTION_DOT":-1.88e-5,"MEAN_MOTION_DDOT":0},{"OBJECT_NAME":"STARLINK-32011","OBJECT_ID":"2024-111Q","EPOCH":"2026-03-02T09:50:38.847840","MEAN_MOTION":15.30199163,"ECCENTRICITY":0.00013315,"INCLINATION":53.1579,"RA_OF_ASC_NODE":109.1087,"ARG_OF_PERICENTER":83.4524,"MEAN_ANOMALY":276.6628,"EPHEMERIS_TYPE":0,"CLASSIFICATION_TYPE":"U","NORAD_CAT_ID":60030,"ELEMENT_SET_NO":999,"REV_AT_EPOCH":9792,"BSTAR":-1.5228808e-5,"MEAN_MOTION_DOT":-8.1e-6,"MEAN_MOTION_DDOT":0},{"OBJECT_NAME":"STARLINK-31878","OBJECT_ID":"2024-111R","EPOCH":"2026-03-02T23:31:06.767616","MEAN_MOTION":15.30193502,"ECCENTRICITY":0.00012171,"INCLINATION":53.1617,"RA_OF_ASC_NODE":55.0182,"ARG_OF_PERICENTER":94.664,"MEAN_ANOMALY":265.45,"EPHEMERIS_TYPE":0,"CLASSIFICATION_TYPE":"U","NORAD_CAT_ID":60031,"ELEMENT_SET_NO":999,"REV_AT_EPOCH":9848,"BSTAR":2.6205071e-5,"MEAN_MOTION_DOT":4.17e-6,"MEAN_MOTION_DDOT":0}]
